start=new Date('2021-09-15T00:00:00.000Z').valueOf();
sats=[{"APOAPSIS":"548.211","TLE_LINE1":"1 45734U 20038E   21257.84842209 -.00000666  00000-0 -25800-4 0  9999","TIME_SYSTEM":"UTC","BSTAR":"-0.00002580000000","SEMIMAJOR_AXIS":"6925.358","EPHEMERIS_TYPE":"0","ECCENTRICITY":"0.00014260","REV_AT_EPOCH":"6948","MEAN_MOTION":"15.06396863","RA_OF_ASC_NODE":"24.6848","DECAY_DATE":null,"MEAN_MOTION_DOT":"-0.00000666","GP_ID":"184722506","SITE":"AFETR","MEAN_ANOMALY":"250.1169","COUNTRY_CODE":"US","OBJECT_ID":"2020-038E","LAUNCH_DATE":"2020-06-13","PERIOD":"95.592","OBJECT_TYPE":"PAYLOAD","MEAN_ELEMENT_THEORY":"SGP4","CLASSIFICATION_TYPE":"U","OBJECT_NAME":"STARLINK-1468","FILE":"3115650","ELEMENT_SET_NO":"999","INCLINATION":"53.0553","ARG_OF_PERICENTER":"109.9974","TLE_LINE2":"2 45734  53.0553  24.6848 0001426 109.9974 250.1169 15.06396863 69488","RCS_SIZE":"LARGE","PERIAPSIS":"546.236","EPOCH":"2021-09-14T20:21:43.668576","NORAD_CAT_ID":"45734","MEAN_MOTION_DDOT":"0.0000000000000","REF_FRAME":"TEME","CENTER_NAME":"EARTH"},{"RCS_SIZE":"LARGE","TLE_LINE2":"2 45735  53.0559  24.5223 0001338 122.4459 237.6659 15.06396659 69488","ARG_OF_PERICENTER":"122.4459","CENTER_NAME":"EARTH","REF_FRAME":"TEME","MEAN_MOTION_DDOT":"0.0000000000000","NORAD_CAT_ID":"45735","EPOCH":"2021-09-14T21:14:47.696928","PERIAPSIS":"546.297","MEAN_ELEMENT_THEORY":"SGP4","OBJECT_TYPE":"PAYLOAD","PERIOD":"95.592","LAUNCH_DATE":"2020-06-13","INCLINATION":"53.0559","ELEMENT_SET_NO":"999","FILE":"3115650","OBJECT_NAME":"STARLINK-1471","CLASSIFICATION_TYPE":"U","GP_ID":"184721254","MEAN_MOTION_DOT":"0.00000558","OBJECT_ID":"2020-038F","COUNTRY_CODE":"US","MEAN_ANOMALY":"237.6659","SITE":"AFETR","EPHEMERIS_TYPE":"0","ECCENTRICITY":"0.00013380","SEMIMAJOR_AXIS":"6925.359","BSTAR":"0.00005638400000","TLE_LINE1":"1 45735U 20038F   21257.88527427  .00000558  00000-0  56384-4 0  9995","APOAPSIS":"548.150","TIME_SYSTEM":"UTC","RA_OF_ASC_NODE":"24.5223","DECAY_DATE":null,"MEAN_MOTION":"15.06396659","REV_AT_EPOCH":"6948"},{"MEAN_MOTION":"15.06403930","DECAY_DATE":null,"RA_OF_ASC_NODE":"25.8121","REV_AT_EPOCH":"6944","SEMIMAJOR_AXIS":"6925.337","EPHEMERIS_TYPE":"0","ECCENTRICITY":"0.00017670","TLE_LINE1":"1 45736U 20038G   21257.59776757  .00000302  00000-0  39163-4 0  9999","APOAPSIS":"548.425","BSTAR":"0.00003916300000","TIME_SYSTEM":"UTC","COUNTRY_CODE":"US","MEAN_ANOMALY":"236.8111","OBJECT_ID":"2020-038G","SITE":"AFETR","GP_ID":"184721504","MEAN_MOTION_DOT":"0.00000302","FILE":"3115650","INCLINATION":"53.0554","ELEMENT_SET_NO":"999","OBJECT_NAME":"STARLINK-1472","CLASSIFICATION_TYPE":"U","OBJECT_TYPE":"PAYLOAD","PERIOD":"95.592","MEAN_ELEMENT_THEORY":"SGP4","LAUNCH_DATE":"2020-06-13","REF_FRAME":"TEME","MEAN_MOTION_DDOT":"0.0000000000000","CENTER_NAME":"EARTH","PERIAPSIS":"545.978","NORAD_CAT_ID":"45736","EPOCH":"2021-09-14T14:20:47.118048","TLE_LINE2":"2 45736  53.0554  25.8121 0001767 123.3047 236.8111 15.06403930 69445","RCS_SIZE":"LARGE","ARG_OF_PERICENTER":"123.3047"},{"MEAN_ANOMALY":"248.5796","COUNTRY_CODE":"US","OBJECT_ID":"2020-038J","SITE":"AFETR","GP_ID":"184721756","MEAN_MOTION_DOT":"0.00000066","RA_OF_ASC_NODE":"25.4748","DECAY_DATE":null,"MEAN_MOTION":"15.06388981","REV_AT_EPOCH":"6945","ECCENTRICITY":"0.00014050","EPHEMERIS_TYPE":"0","SEMIMAJOR_AXIS":"6925.382","TIME_SYSTEM":"UTC","TLE_LINE1":"1 45738U 20038J   21257.67518601  .00000066  00000-0  23310-4 0  9996","APOAPSIS":"548.220","BSTAR":"0.00002331000000","CENTER_NAME":"EARTH","REF_FRAME":"TEME","MEAN_MOTION_DDOT":"0.0000000000000","NORAD_CAT_ID":"45738","EPOCH":"2021-09-14T16:12:16.071264","PERIAPSIS":"546.274","RCS_SIZE":"LARGE","TLE_LINE2":"2 45738  53.0546  25.4748 0001405 111.5343 248.5796 15.06388981 69454","ARG_OF_PERICENTER":"111.5343","INCLINATION":"53.0546","ELEMENT_SET_NO":"999","FILE":"3115650","OBJECT_NAME":"STARLINK-1474","CLASSIFICATION_TYPE":"U","MEAN_ELEMENT_THEORY":"SGP4","OBJECT_TYPE":"PAYLOAD","PERIOD":"95.593","LAUNCH_DATE":"2020-06-13"},{"TLE_LINE1":"1 45739U 20038K   21257.62357089 -.00000018  00000-0  17656-4 0  9997","APOAPSIS":"547.775","TIME_SYSTEM":"UTC","BSTAR":"0.00001765600000","ECCENTRICITY":"0.00008150","EPHEMERIS_TYPE":"0","SEMIMAJOR_AXIS":"6925.346","REV_AT_EPOCH":"7000","DECAY_DATE":null,"RA_OF_ASC_NODE":"345.6960","MEAN_MOTION":"15.06400926","MEAN_MOTION_DOT":"-0.00000018","GP_ID":"184722007","SITE":"AFETR","MEAN_ANOMALY":"234.1809","COUNTRY_CODE":"US","OBJECT_ID":"2020-038K","LAUNCH_DATE":"2020-06-13","MEAN_ELEMENT_THEORY":"SGP4","PERIOD":"95.592","OBJECT_TYPE":"PAYLOAD","CLASSIFICATION_TYPE":"U","OBJECT_NAME":"STARLINK-1475","ELEMENT_SET_NO":"999","INCLINATION":"53.0556","FILE":"3115650","ARG_OF_PERICENTER":"125.9256","TLE_LINE2":"2 45739  53.0556 345.6960 0000815 125.9256 234.1809 15.06400926 70008","RCS_SIZE":"LARGE","EPOCH":"2021-09-14T14:57:56.524896","NORAD_CAT_ID":"45739","PERIAPSIS":"546.646","CENTER_NAME":"EARTH","MEAN_MOTION_DDOT":"0.0000000000000","REF_FRAME":"TEME"},{"ARG_OF_PERICENTER":"99.9978","TLE_LINE2":"2 45740  53.0555  25.7389 0001431  99.9978 260.1173 15.06396459 69440","RCS_SIZE":"LARGE","PERIAPSIS":"546.233","EPOCH":"2021-09-14T14:47:19.586688","NORAD_CAT_ID":"45740","MEAN_MOTION_DDOT":"0.0000000000000","REF_FRAME":"TEME","CENTER_NAME":"EARTH","LAUNCH_DATE":"2020-06-13","PERIOD":"95.592","OBJECT_TYPE":"PAYLOAD","MEAN_ELEMENT_THEORY":"SGP4","CLASSIFICATION_TYPE":"U","OBJECT_NAME":"STARLINK-1479","FILE":"3115650","ELEMENT_SET_NO":"999","INCLINATION":"53.0555","MEAN_MOTION_DOT":"0.00001421","GP_ID":"184720755","SITE":"AFETR","MEAN_ANOMALY":"260.1173","COUNTRY_CODE":"US","OBJECT_ID":"2020-038L","TLE_LINE1":"1 45740U 20038L   21257.61619892  .00001421  00000-0  11428-3 0  9999","APOAPSIS":"548.215","TIME_SYSTEM":"UTC","BSTAR":"0.00011428000000","SEMIMAJOR_AXIS":"6925.359","EPHEMERIS_TYPE":"0","ECCENTRICITY":"0.00014310","REV_AT_EPOCH":"6944","MEAN_MOTION":"15.06396459","DECAY_DATE":null,"RA_OF_ASC_NODE":"25.7389"},{"RCS_SIZE":"LARGE","TLE_LINE2":"2 45741  53.0561  25.8671 0001299  95.5677 264.5461 15.06389856 69455","ARG_OF_PERICENTER":"95.5677","MEAN_MOTION_DDOT":"0.0000000000000","REF_FRAME":"TEME","CENTER_NAME":"EARTH","PERIAPSIS":"546.345","EPOCH":"2021-09-14T14:04:52.816224","NORAD_CAT_ID":"45741","PERIOD":"95.593","OBJECT_TYPE":"PAYLOAD","MEAN_ELEMENT_THEORY":"SGP4","LAUNCH_DATE":"2020-06-13","FILE":"3115650","ELEMENT_SET_NO":"999","INCLINATION":"53.0561","CLASSIFICATION_TYPE":"U","OBJECT_NAME":"STARLINK-1480","GP_ID":"184721005","MEAN_MOTION_DOT":"-0.00000427","COUNTRY_CODE":"US","MEAN_ANOMALY":"264.5461","OBJECT_ID":"2020-038M","SITE":"AFETR","SEMIMAJOR_AXIS":"6925.380","EPHEMERIS_TYPE":"0","ECCENTRICITY":"0.00012990","APOAPSIS":"548.144","TLE_LINE1":"1 45741U 20038M   21257.58672241 -.00000427  00000-0 -97827-5 0  9999","BSTAR":"-0.00000978270000","TIME_SYSTEM":"UTC","MEAN_MOTION":"15.06389856","RA_OF_ASC_NODE":"25.8671","DECAY_DATE":null,"REV_AT_EPOCH":"6945"},{"DECAY_DATE":null,"RA_OF_ASC_NODE":"24.7046","MEAN_MOTION":"15.06399573","REV_AT_EPOCH":"6947","EPHEMERIS_TYPE":"0","ECCENTRICITY":"0.00011660","SEMIMAJOR_AXIS":"6925.350","TLE_LINE1":"1 45742U 20038N   21257.84473067 -.00000198  00000-0  56250-5 0  9993","BSTAR":"0.00000562500000","APOAPSIS":"548.022","TIME_SYSTEM":"UTC","MEAN_ANOMALY":"240.8924","COUNTRY_CODE":"US","OBJECT_ID":"2020-038N","SITE":"AFETR","GP_ID":"184722256","MEAN_MOTION_DOT":"-0.00000198","ELEMENT_SET_NO":"999","INCLINATION":"53.0555","FILE":"3115650","CLASSIFICATION_TYPE":"U","OBJECT_NAME":"STARLINK-1481","MEAN_ELEMENT_THEORY":"SGP4","PERIOD":"95.592","OBJECT_TYPE":"PAYLOAD","LAUNCH_DATE":"2020-06-13","CENTER_NAME":"EARTH","MEAN_MOTION_DDOT":"0.0000000000000","REF_FRAME":"TEME","EPOCH":"2021-09-14T20:16:24.729888","NORAD_CAT_ID":"45742","PERIAPSIS":"546.407","TLE_LINE2":"2 45742  53.0555  24.7046 0001166 119.2181 240.8924 15.06399573 69470","RCS_SIZE":"LARGE","ARG_OF_PERICENTER":"119.2181"},{"PERIOD":"95.592","OBJECT_TYPE":"PAYLOAD","MEAN_ELEMENT_THEORY":"SGP4","LAUNCH_DATE":"2020-06-13","FILE":"3115650","ELEMENT_SET_NO":"999","INCLINATION":"53.0560","CLASSIFICATION_TYPE":"U","OBJECT_NAME":"STARLINK-1483","TLE_LINE2":"2 45743  53.0560  24.5581 0001227  96.3956 263.7173 15.06395296 69481","RCS_SIZE":"LARGE","ARG_OF_PERICENTER":"96.3956","MEAN_MOTION_DDOT":"0.0000000000000","REF_FRAME":"TEME","CENTER_NAME":"EARTH","PERIAPSIS":"546.378","EPOCH":"2021-09-14T21:04:11.284032","NORAD_CAT_ID":"45743","SEMIMAJOR_AXIS":"6925.363","EPHEMERIS_TYPE":"0","ECCENTRICITY":"0.00012270","TIME_SYSTEM":"UTC","TLE_LINE1":"1 45743U 20038P   21257.87790838 -.00000341  00000-0 -39777-5 0  9991","APOAPSIS":"548.078","BSTAR":"-0.00000397770000","MEAN_MOTION":"15.06395296","RA_OF_ASC_NODE":"24.5581","DECAY_DATE":null,"REV_AT_EPOCH":"6948","GP_ID":"184722507","MEAN_MOTION_DOT":"-0.00000341","COUNTRY_CODE":"US","OBJECT_ID":"2020-038P","MEAN_ANOMALY":"263.7173","SITE":"AFETR"},{"GP_ID":"184721255","MEAN_MOTION_DOT":"-0.00000164","MEAN_ANOMALY":"259.7413","COUNTRY_CODE":"US","OBJECT_ID":"2020-038Q","SITE":"AFETR","EPHEMERIS_TYPE":"0","ECCENTRICITY":"0.00013140","SEMIMAJOR_AXIS":"6925.349","APOAPSIS":"548.124","TLE_LINE1":"1 45744U 20038Q   21257.76732596 -.00000164  00000-0  78894-5 0  9992","TIME_SYSTEM":"UTC","BSTAR":"0.00000788940000","DECAY_DATE":null,"RA_OF_ASC_NODE":"25.0583","MEAN_MOTION":"15.06399788","REV_AT_EPOCH":"6947","RCS_SIZE":"LARGE","TLE_LINE2":"2 45744  53.0564  25.0583 0001314 100.3724 259.7413 15.06399788 69471","ARG_OF_PERICENTER":"100.3724","CENTER_NAME":"EARTH","REF_FRAME":"TEME","MEAN_MOTION_DDOT":"0.0000000000000","NORAD_CAT_ID":"45744","EPOCH":"2021-09-14T18:24:56.962944","PERIAPSIS":"546.304","MEAN_ELEMENT_THEORY":"SGP4","OBJECT_TYPE":"PAYLOAD","PERIOD":"95.592","LAUNCH_DATE":"2020-06-13","INCLINATION":"53.0564","ELEMENT_SET_NO":"999","FILE":"3115650","OBJECT_NAME":"STARLINK-1500","CLASSIFICATION_TYPE":"U"}];
